PCSAT (NO-44)           
1 26931U 01043C   26062.69115843  .00000250  00000+0  12407-3 0  9995
2 26931  67.0509 157.1258 0007029 265.3966  94.6334 14.31908513275349
PROBA-1                 
1 26958U 01049B   26063.17990588  .00002318  00000+0  15390-3 0  9992
2 26958  97.9622  68.0676 0057005 117.1507 243.5548 15.06984992327803
SPOT 5                  
1 27421U 02021A   26063.13926971  .00000604  00000+0  13706-3 0  9995
2 27421  97.9996 106.5942 0128647 242.9114 115.8911 14.54654120247578
FENGYUN 1D              
1 27431U 02024B   26063.14168870  .00000139  00000+0  10367-3 0  9999
2 27431  98.9672 113.8855 0015557 175.0120 185.1208 14.10208550224672
SAUDISAT 1C (SO-50)     
1 27607U 02058C   26063.15438645  .00002476  00000+0  30920-3 0  9995
2 27607  64.5519  93.8922 0075133 281.7019  77.5664 14.82756785248882
CORIOLIS                
1 27640U 03001A   26062.63950977  .00000195  00000+0  11238-3 0  9997
2 27640  98.7161  71.1242 0014499 153.1511 207.0418 14.19910037199246
CUTE-1 (CO-55)          
1 27844U 03031E   26063.01394075  .00000483  00000+0  22828-3 0  9997
2 27844  98.6778  72.8832 0010497 127.2783 232.9354 14.24260748176700
CUBESAT XI-IV (CO-57)   
1 27848U 03031J   26062.94998598  .00000409  00000+0  19861-3 0  9993
2 27848  98.6808  72.6171 0010137 144.0340 216.1522 14.23556668176405
MOZHAETS 4 (RS22)       
1 27939U 03042A   26063.22843796  .00001806  00000+0  28787-3 0  9996
2 27939  98.3425 244.6376 0010292 239.1759 229.6712 14.73235056200091
IRS-P6 (RESOURCESAT-1)  
1 28051U 03046A   26063.16637163  .00000262  00000+0  10191-3 0  9993
2 28051  98.2056 104.7572 0063072 297.9734 137.8089 14.36113225165458
SAUDISAT 2              
1 28371U 04025F   26062.58839591  .00000486  00000+0  11984-3 0  9999
2 28371  98.5493  59.8567 0023518 260.7971  99.0566 14.56610022150370
COSMOS 2407             
1 28380U 04028A   26063.15347387  .00000091  00000+0  76777-4 0  9997
2 28380  82.9639 152.6237 0039299 184.1574 191.2267 13.76324308 85433
COSMOS 2414             
1 28521U 05002A   26063.13915260  .00000127  00000+0  93870-4 0  9999
2 28521  82.9492 123.1170 0038676 268.7807  90.8925 13.87914663 69249
INMARSAT 4-F1           
1 28628U 05009A   26063.12099419  .00000023  00000+0  00000+0 0  9995
2 28628   5.0271  42.7342 0002751 325.3639  15.4373  1.00272499 76618
HAMSAT (VO-52)          
1 28650U 05017B   26063.03771864  .00008272  00000+0  52926-3 0  9992
2 28650  97.9995  81.6795 0020731  37.4621 322.8046 15.08688809130904
NOAA 18                 
1 28654U 05018A   26063.16288087  .00000087  00000+0  69078-4 0  9994
2 28654  98.8165 144.3474 0015347  90.1079 270.1852 14.13709605 71477
SJ-7                    
1 28737U 05024A   26063.07454431  .00013140  00000+0  61334-3 0  9991
2 28737  97.7408  90.4153 0017317  42.1950 318.0613 15.19838296132051
